ACS3                    
1 59588U 24077B   24265.58097095  .00017280  00000+0  19803-1 0  9996
2 59588  97.4263 311.3874 0046327 209.4892 150.3646 13.69137906 20586
